NORAD_CAT_ID,OBJECT_NAME,OBJECT_TYPE,EPOCH,MEAN_MOTION,ECCENTRICITY,INCLINATION,RA_OF_ASC_NODE,ARG_OF_PERICENTER,MEAN_ANOMALY,BSTAR,MEAN_MOTION_DOT,MEAN_MOTION_DDOT,TLE_LINE0,TLE_LINE1,TLE_LINE2,SEMIMAJOR_AXIS,PERIOD,APOGEE,PERIGEE,DECAYED
53778.0,STARLINK-4709,PAYLOAD,2023-08-08 07:55:07,15.08847621,0.000112,53.2158,198.2416,100.3259,259.7859,8.4922e-05,1.064e-05,0.0,0 STARLINK-4709,1 53778U 22111F   23220.32994651  .00001064  00000-0  84922-4 0  9995,2 53778  53.2158 198.2416 0001120 100.3259 259.7859 15.08847621 50250,6917.857,95.437,540.497,538.947,0.0
53778.0,STARLINK-4709,PAYLOAD,2023-08-08 23:48:59,15.08833455,0.0001132,53.2159,195.2674,100.555,259.557,7.5099e-05,9.07e-06,0.0,0 STARLINK-4709,1 53778U 22111F   23220.99235651  .00000907  00000-0  75099-4 0  9996,2 53778  53.2159 195.2674 0001132 100.5550 259.5570 15.08833455 50352,6917.9,95.438,540.549,538.982,0.0
53778.0,STARLINK-4709,PAYLOAD,2023-08-10 07:36:42,15.08842517,0.0001154,53.2155,189.318,113.0244,247.087,5.6601e-06,-1.98e-06,0.0,0 STARLINK-4709,1 53778U 22111F   23222.31715366 -.00000198  00000-0  56601-5 0  9992,2 53778  53.2155 189.3180 0001154 113.0244 247.0870 15.08842517 50553,6917.873,95.437,540.536,538.939,0.0
53778.0,STARLINK-4709,PAYLOAD,2023-08-12 02:32:07,15.08834958,0.0001459,53.2162,181.288,108.8476,251.2674,7.5428e-06,-1.68e-06,0.0,0 STARLINK-4709,1 53778U 22111F   23224.10563992 -.00000168  00000-0  75428-5 0  9992,2 53778  53.2162 181.2880 0001459 108.8476 251.2674 15.08834958 50825,6917.896,95.438,540.77,538.751,0.0
53778.0,STARLINK-4709,PAYLOAD,2023-08-13 00:47:30,15.08852505,0.0001033,53.216,177.1292,87.1173,272.9938,-4.7778e-05,-1.048e-05,0.0,0 STARLINK-4709,1 53778U 22111F   23225.03299419 -.00001048  00000-0 -47778-4 0  9990,2 53778  53.2160 177.1292 0001033  87.1173 272.9938 15.08852505 50961,6917.842,95.437,540.422,538.993,0.0
53778.0,STARLINK-4709,PAYLOAD,2023-08-13 05:33:39,15.08861825,0.0001041,53.2162,176.2371,89.0775,271.0337,-8.0884e-05,-1.576e-05,0.0,0 STARLINK-4709,1 53778U 22111F   23225.23170819 -.00001576  00000-0 -80884-4 0  9995,2 53778  53.2162 176.2371 0001041  89.0775 271.0337 15.08861825 50990,6917.814,95.436,540.399,538.959,0.0
53778.0,STARLINK-4709,PAYLOAD,2023-08-14 00:38:18,15.08846644,0.0001039,53.2164,172.6702,84.2121,275.8989,-0.00022063,-3.798e-05,0.0,0 STARLINK-4709,1 53778U 22111F   23226.02660486 -.00003798  00000-0 -22063-3 0  9999,2 53778  53.2164 172.6702 0001039  84.2121 275.8989 15.08846644 51111,6917.86,95.437,540.444,539.006,0.0
53778.0,STARLINK-4709,PAYLOAD,2023-08-14 05:24:28,15.08831028,0.0001468,53.2178,171.7794,98.8764,261.2394,4.907e-05,4.93e-06,0.0,0 STARLINK-4709,1 53778U 22111F   23226.22532770  .00000493  00000-0  49070-4 0  9990,2 53778  53.2178 171.7794 0001468  98.8764 261.2394 15.08831028 51149,6917.908,95.438,540.788,538.757,0.0
53778.0,STARLINK-4709,PAYLOAD,2023-08-15 02:04:28,15.08846447,0.0001613,53.2179,167.9138,103.1333,256.9839,4.4823e-05,4.26e-06,0.0,0 STARLINK-4709,1 53778U 22111F   23227.08643889  .00000426  00000-0  44823-4 0  9996,2 53778  53.2179 167.9138 0001613 103.1333 256.9839 15.08846447 51273,6917.861,95.437,540.842,538.61,0.0
53778.0,STARLINK-4709,PAYLOAD,2023-08-15 03:39:51,15.08858143,0.0001336,53.2162,167.6133,95.4426,264.6718,-6.2137e-05,-1.277e-05,0.0,0 STARLINK-4709,1 53778U 22111F   23227.15267419 -.00001277  00000-0 -62137-4 0  9990,2 53778  53.2162 167.6133 0001336  95.4426 264.6718 15.08858143 51284,6917.825,95.436,540.614,538.766,0.0
53778.0,STARLINK-4709,PAYLOAD,2023-08-16 01:55:15,15.08842458,0.0001378,53.2171,163.4504,91.7186,268.3964,9.4637e-05,1.219e-05,0.0,0 STARLINK-4709,1 53778U 22111F   23228.08004099  .00001219  00000-0  94637-4 0  9990,2 53778  53.2171 163.4504 0001378  91.7186 268.3964 15.08842458 51420,6917.873,95.437,540.691,538.785,0.0
53778.0,STARLINK-4709,PAYLOAD,2023-08-18 01:36:49,15.08842941,0.0001333,53.2165,154.5283,88.049,272.0655,-3.4564e-06,-3.43e-06,0.0,0 STARLINK-4709,1 53778U 22111F   23230.06723993 -.00000343  00000-0 -34564-5 0  9995,2 53778  53.2165 154.5283 0001333  88.0490 272.0655 15.08842941 51725,6917.871,95.437,540.659,538.814,0.0
53778.0,STARLINK-4709,PAYLOAD,2023-08-19 04:38:22,15.08846777,0.0001337,53.2165,149.4728,96.2752,263.8392,3.1827e-05,2.19e-06,0.0,0 STARLINK-4709,1 53778U 22111F   23231.19331565  .00000219  00000-0  31827-4 0  9998,2 53778  53.2165 149.4728 0001337  96.2752 263.8392 15.08846777 51893,6917.86,95.437,540.65,538.8,0.0
53778.0,STARLINK-4709,PAYLOAD,2023-08-19 18:56:52,15.08827305,0.0001247,53.2175,146.8011,75.5552,284.5578,-3.9351e-05,-9.14e-06,0.0,0 STARLINK-4709,1 53778U 22111F   23231.78949376 -.00000914  00000-0 -39351-4 0  9992,2 53778  53.2175 146.8011 0001247  75.5552 284.5578 15.08827305 51980,6917.919,95.438,540.647,538.922,0.0
53778.0,STARLINK-4709,PAYLOAD,2023-08-20 04:29:10,15.08835114,0.0001365,53.2168,145.0136,84.8904,275.2243,8.5231e-06,-1.52e-06,0.0,0 STARLINK-4709,1 53778U 22111F   23232.18692916 -.00000152  00000-0  85231-5 0  9994,2 53778  53.2168 145.0136 0001365  84.8904 275.2243 15.08835114 52047,6917.895,95.438,540.705,538.816,0.0
53778.0,STARLINK-4709,PAYLOAD,2023-08-21 02:44:33,15.08851696,0.0001392,53.217,140.8509,94.9294,265.1857,0.00017802,2.547e-05,0.0,0 STARLINK-4709,1 53778U 22111F   23233.11427594  .00002547  00000-0  17802-3 0  9992,2 53778  53.2170 140.8509 0001392  94.9294 265.1857 15.08851696 52188,6917.845,95.437,540.673,538.747,0.0
53778.0,STARLINK-4709,PAYLOAD,2023-08-22 02:35:21,15.08833698,0.0001621,53.2174,136.3874,86.8611,273.2566,9.3591e-05,1.202e-05,0.0,0 STARLINK-4709,1 53778U 22111F   23234.10789345  .00001202  00000-0  93591-4 0  9994,2 53778  53.2174 136.3874 0001621  86.8611 273.2566 15.08833698 52331,6917.9,95.438,540.886,538.643,0.0
53778.0,STARLINK-4709,PAYLOAD,2023-08-23 02:26:08,15.08846426,0.0001333,53.2171,131.9292,82.0953,278.019,-2.2195e-05,-6.41e-06,0.0,0 STARLINK-4709,1 53778U 22111F   23235.10148977 -.00000641  00000-0 -22195-4 0  9995,2 53778  53.2171 131.9292 0001333  82.0953 278.0190 15.08846426 52485,6917.861,95.437,540.648,538.804,0.0
53778.0,STARLINK-4709,PAYLOAD,2023-08-24 02:16:55,15.088491,0.0001469,53.2177,127.468,72.3667,287.7486,0.0001031,1.354e-05,0.0,0 STARLINK-4709,1 53778U 22111F   23236.09508657  .00001354  00000-0  10310-3 0  9994,2 53778  53.2177 127.4680 0001469  72.3667 287.7486 15.08849100 53440,6917.853,95.437,540.734,538.701,0.0
53778.0,STARLINK-4709,PAYLOAD,2023-08-25 02:07:43,15.08840786,0.0001499,53.2167,123.0087,84.7063,275.4101,5.5221e-05,5.91e-06,0.0,0 STARLINK-4709,1 53778U 22111F   23237.08869387  .00000591  00000-0  55221-4 0  9997,2 53778  53.2167 123.0087 0001499  84.7063 275.4101 15.08840786 52787,6917.878,95.438,540.78,538.706,0.0
53778.0,STARLINK-4709,PAYLOAD,2023-08-25 19:36:57,15.08834305,0.0001421,53.2154,119.7364,110.2297,249.8848,0.00023995,3.532e-05,0.0,0 STARLINK-4709,1 53778U 22111F   23237.81732984  .00003532  00000-0  23995-3 0  9990,2 53778  53.2154 119.7364 0001421 110.2297 249.8848 15.08834305 53708,6917.898,95.438,540.746,538.78,0.0
53778.0,STARLINK-4709,PAYLOAD,2023-08-26 01:58:29,15.08848622,0.0001458,53.2168,118.5474,88.1117,272.0042,8.1834e-05,1.015e-05,0.0,0 STARLINK-4709,1 53778U 22111F   23238.08228581  .00001015  00000-0  81834-4 0  9994,2 53778  53.2168 118.5474 0001458  88.1117 272.0042 15.08848622 52931,6917.854,95.437,540.728,538.71,0.0
53778.0,STARLINK-4709,PAYLOAD,2023-08-26 16:16:58,15.08838412,0.0001439,53.2171,115.8691,100.2273,259.8882,4.629e-05,4.49e-06,0.0,0 STARLINK-4709,1 53778U 22111F   23238.67845386  .00000449  00000-0  46290-4 0  9994,2 53778  53.2171 115.8691 0001439 100.2273 259.8882 15.08838412 53026,6917.885,95.438,540.746,538.755,0.0
53778.0,STARLINK-4709,PAYLOAD,2023-08-26 21:03:07,15.08838252,0.0001408,53.217,114.9768,94.1529,265.9624,5.5743e-05,5.99e-06,0.0,0 STARLINK-4709,1 53778U 22111F   23238.87717409  .00000599  00000-0  55743-4 0  9999,2 53778  53.2170 114.9768 0001408  94.1529 265.9624 15.08838252 53867,6917.886,95.438,540.725,538.777,0.0
53778.0,STARLINK-4709,PAYLOAD,2023-08-27 01:49:17,15.08837708,0.0001498,53.2171,114.0854,92.0878,268.0285,3.1331e-05,2.11e-06,0.0,0 STARLINK-4709,1 53778U 22111F   23239.07589558  .00000211  00000-0  31331-4 0  9992,2 53778  53.2171 114.0854 0001498  92.0878 268.0285 15.08837708 53893,6917.887,95.438,540.789,538.716,0.0
53778.0,STARLINK-4709,PAYLOAD,2023-08-27 20:53:54,15.08844926,0.0001461,53.2172,110.517,94.4377,265.6782,7.646e-05,9.29e-06,0.0,0 STARLINK-4709,1 53778U 22111F   23239.87076966  .00000929  00000-0  76460-4 0  9992,2 53778  53.2172 110.5170 0001461  94.4377 265.6782 15.08844926 54016,6917.865,95.437,540.741,538.72,0.0
53778.0,STARLINK-4709,PAYLOAD,2023-08-28 00:04:40,15.08848006,0.0001382,53.2171,109.9229,93.8054,266.3097,8.3924e-05,1.048e-05,0.0,0 STARLINK-4709,1 53778U 22111F   23240.00324749  .00001048  00000-0  83924-4 0  9990,2 53778  53.2171 109.9229 0001382  93.8054 266.3097 15.08848006 53221,6917.856,95.437,540.677,538.765,0.0
53778.0,STARLINK-4709,PAYLOAD,2023-08-28 08:01:36,15.08840367,0.0001433,53.2174,108.437,91.9561,268.1595,-7.6818e-06,-4.1e-06,0.0,0 STARLINK-4709,1 53778U 22111F   23240.33445403 -.00000410  00000-0 -76818-5 0  9996,2 53778  53.2174 108.4370 0001433  91.9561 268.1595 15.08840367 53274,6917.879,95.438,540.736,538.753,0.0
53778.0,STARLINK-4709,PAYLOAD,2023-08-28 15:58:33,15.08829863,0.0001498,53.2178,106.9515,99.4085,260.7076,2.5115e-05,1.12e-06,0.0,0 STARLINK-4709,1 53778U 22111F   23240.66566219  .00000112  00000-0  25115-4 0  9991,2 53778  53.2178 106.9515 0001498  99.4085 260.7076 15.08829863 53323,6917.911,95.438,540.813,538.74,0.0
53778.0,STARLINK-4709,PAYLOAD,2023-08-28 20:44:42,15.08832525,0.0001586,53.218,106.0618,101.3612,258.7558,3.8059e-05,3.18e-06,0.0,0 STARLINK-4709,1 53778U 22111F   23240.86438148  .00000318  00000-0  38059-4 0  9991,2 53778  53.2180 106.0618 0001586 101.3612 258.7558 15.08832525 54162,6917.903,95.438,540.865,538.671,0.0
